[{"OBJECT_NAME":"STARLINK-11741 [DTC]","OBJECT_ID":"2025-107A","EPOCH":"2026-03-09T10:41:43.898208","MEAN_MOTION":15.70882089,"ECCENTRICITY":7.782e-5,"INCLINATION":42.9981,"RA_OF_ASC_NODE":100.243,"ARG_OF_PERICENTER":293.4539,"MEAN_ANOMALY":66.6247,"EPHEMERIS_TYPE":0,"CLASSIFICATION_TYPE":"U","NORAD_CAT_ID":64064,"ELEMENT_SET_NO":999,"REV_AT_EPOCH":4725,"BSTAR":0.0013541515,"MEAN_MOTION_DOT":0.00177378,"MEAN_MOTION_DDOT":0},{"OBJECT_NAME":"BREEZE-M DEB [TANK]","OBJECT_ID":"2015-082C","EPOCH":"2026-03-09T16:04:58.533024","MEAN_MOTION":5.26405855,"ECCENTRICITY":0.52049851,"INCLINATION":49.5476,"RA_OF_ASC_NODE":107.6593,"ARG_OF_PERICENTER":249.3292,"MEAN_ANOMALY":49.0385,"EPHEMERIS_TYPE":0,"CLASSIFICATION_TYPE":"U","NORAD_CAT_ID":41193,"ELEMENT_SET_NO":999,"REV_AT_EPOCH":19238,"BSTAR":0.0011292245,"MEAN_MOTION_DOT":5.11e-5,"MEAN_MOTION_DDOT":0}]
